OBJECT_NAME,OBJECT_ID,EPOCH,MEAN_MOTION,ECCENTRICITY,INCLINATION,RA_OF_ASC_NODE,ARG_OF_PERICENTER,MEAN_ANOMALY,EPHEMERIS_TYPE,CLASSIFICATION_TYPE,NORAD_CAT_ID,ELEMENT_SET_NO,REV_AT_EPOCH,BSTAR,MEAN_MOTION_DOT,MEAN_MOTION_DDOT
STARLINK-4350,2022-077C,2026-01-02T01:46:36.257664,15.05651413,.0001435,97.6025,185.5545,83.4604,276.6786,0,U,53045,999,19096,.15007E-4,.156E-5,0
STARLINK-4331,2022-077D,2026-01-02T02:22:30.520704,15.05644020,.0001679,97.6031,185.6751,80.5818,279.5598,0,U,53046,999,19097,.25963E-4,.314E-5,0
STARLINK-4352,2022-077E,2026-01-02T02:29:13.339104,15.01253991,.0003207,97.6019,185.0647,46.5614,313.5877,0,U,53047,999,19093,.14715E-3,.1832E-4,0
STARLINK-4355,2022-077F,2026-01-02T01:26:40.438464,15.05646449,.0001356,97.6020,185.5700,88.3061,271.8321,0,U,53048,999,19095,.88869E-4,.1222E-4,0
STARLINK-4345,2022-077G,2026-01-02T01:00:53.481888,15.01260844,.0002923,97.6023,184.9807,52.2151,307.9338,0,U,53049,999,19091,.42819E-4,.492E-5,0
STARLINK-4343,2022-077H,2026-01-02T01:58:34.165632,15.05645087,.0001816,97.6033,185.5359,81.5088,278.6345,0,U,53050,999,19095,-.21497E-4,-.371E-5,0
STARLINK-4336,2022-077J,2026-01-02T01:11:33.743904,15.01272134,.0002197,97.6034,184.9648,64.8353,295.3099,0,U,53051,999,19091,.15279E-3,.1905E-4,0
STARLINK-4341,2022-077K,2026-01-02T01:06:13.599936,15.01260311,.0002582,97.6030,184.9797,67.0125,293.1372,0,U,53052,999,19091,.38697E-4,.439E-5,0
STARLINK-4337,2022-077L,2026-01-02T00:55:33.536640,15.01260984,.0002982,97.6019,184.9720,49.9011,310.2474,0,U,53053,999,19091,.45752E-4,.529E-5,0
STARLINK-4339,2022-077M,2026-01-02T01:06:43.967808,15.05651680,.0001047,97.6037,185.5754,77.7006,282.4338,0,U,53054,999,19095,.63566E-5,.31E-6,0
STARLINK-4338,2022-077N,2026-01-02T01:50:35.667744,15.05643495,.0001345,97.6024,185.5179,80.9018,279.2361,0,U,53055,999,19095,.9477E-5,.76E-6,0
STARLINK-4314,2022-077P,2026-01-02T03:06:22.717440,15.05639782,.0001584,97.6022,185.6092,83.1761,276.9646,0,U,53056,999,19096,-.62917E-4,-.968E-5,0
STARLINK-4252,2022-077Q,2026-01-02T02:06:33.110208,15.05650385,.0001583,97.6037,185.6467,110.8752,249.2644,0,U,53057,999,19096,-.14084E-3,-.2092E-4,0
STARLINK-4317,2022-077R,2026-01-02T01:14:34.491840,15.01263541,.0001734,97.6038,184.9487,66.6571,293.4836,0,U,53058,999,19092,.84853E-4,.1032E-4,0
STARLINK-4320,2022-077S,2026-01-02T02:18:33.520320,15.01256820,.0001072,97.6019,185.0244,11.6585,348.4664,0,U,53059,999,19092,.21014E-4,.212E-5,0
STARLINK-4305,2022-077T,2026-01-02T02:26:12.584256,15.01256189,.0002477,97.6020,185.0324,55.1250,305.0207,0,U,53060,999,19092,.46349E-4,.537E-5,0
STARLINK-4308,2022-077U,2026-01-02T02:15:32.439744,15.01263992,.0001902,97.6012,185.0187,59.0757,301.0654,0,U,53061,999,19092,.98842E-5,.69E-6,0
STARLINK-4311,2022-077V,2026-01-02T02:20:52.570752,15.01230216,.0003171,97.6028,185.0280,46.3703,313.7784,0,U,53062,999,19092,.42512E-3,.5402E-4,0
STARLINK-4307,2022-077W,2026-01-02T00:54:45.730656,15.05651222,.0001723,97.6036,185.4681,82.1663,277.9759,0,U,53063,999,6253,.41169E-4,.533E-5,0
STARLINK-4313,2022-077X,2026-01-02T01:10:43.142880,15.05649016,.0001321,97.6029,185.5375,77.7010,282.4365,0,U,53064,999,19095,.66209E-4,.895E-5,0
STARLINK-4312,2022-077Y,2026-01-02T02:10:12.492768,15.01258867,.0001431,97.6016,185.0107,96.1719,263.9668,0,U,53065,999,19092,.48402E-4,.563E-5,0
STARLINK-4309,2022-077Z,2026-01-02T02:07:53.915808,15.01272820,.0001947,97.6007,185.0171,88.9053,271.2395,0,U,53066,999,19092,.79436E-3,.10163E-3,0
STARLINK-4325,2022-077AB,2026-01-02T01:02:44.626848,15.05649204,.0001671,97.6035,185.5297,77.8140,282.3273,0,U,53068,999,19095,.60861E-4,.817E-5,0
STARLINK-4323,2022-077AC,2026-01-02T01:59:32.407872,15.01259350,.0001427,97.6020,185.0012,79.9264,280.2121,0,U,53069,999,19092,.81035E-4,.983E-5,0
STARLINK-4342,2022-077AD,2026-01-02T01:42:37.575072,15.05652643,.0001374,97.6018,185.6420,79.0139,281.1242,0,U,53070,999,19096,.45215E-4,.592E-5,0
STARLINK-4328,2022-077AE,2026-01-02T01:38:38.252256,15.05651510,.0001273,97.6022,185.6299,82.2855,277.8516,0,U,53071,999,19096,.5584E-4,.745E-5,0
STARLINK-4344,2022-077AF,2026-01-02T01:18:41.301216,15.05650785,.0001285,97.6020,185.5049,86.6980,273.4394,0,U,53072,999,19095,.85645E-4,.1175E-4,0
STARLINK-4346,2022-077AG,2026-01-02T01:53:41.589312,15.18750100,.0004909,97.6333,189.4101,107.9767,252.2002,0,U,53073,999,19118,.11333E-2,.23539E-3,0
STARLINK-4310,2022-077AH,2026-01-02T01:14:42.057888,15.05650390,.0001411,97.6019,185.4998,85.1094,275.0294,0,U,53074,999,19095,.80429E-4,.11E-4,0
STARLINK-4348,2022-077AJ,2026-01-02T01:54:12.537792,15.01283148,.0001127,97.6015,184.9844,173.8689,186.2549,0,U,53075,999,19092,.26687E-3,.3373E-4,0
