STARLINK-4350           
1 53045U 22077C   26002.07403076  .00000156  00000+0  15007-4 0  9990
2 53045  97.6025 185.5545 0001435  83.4604 276.6786 15.05651413190967
STARLINK-4331           
1 53046U 22077D   26002.09896436  .00000314  00000+0  25963-4 0  9997
2 53046  97.6031 185.6751 0001679  80.5818 279.5598 15.05644020190970
STARLINK-4352           
1 53047U 22077E   26002.10362661  .00001832  00000+0  14715-3 0  9996
2 53047  97.6019 185.0647 0003207  46.5614 313.5877 15.01253991190934
STARLINK-4355           
1 53048U 22077F   26002.06019026  .00001222  00000+0  88869-4 0  9991
2 53048  97.6020 185.5700 0001356  88.3061 271.8321 15.05646449190955
STARLINK-4345           
1 53049U 22077G   26002.04228567  .00000492  00000+0  42819-4 0  9995
2 53049  97.6023 184.9807 0002923  52.2151 307.9338 15.01260844190913
STARLINK-4343           
1 53050U 22077H   26002.08233988 -.00000371  00000+0 -21497-4 0  9991
2 53050  97.6033 185.5359 0001816  81.5088 278.6345 15.05645087190955
STARLINK-4336           
1 53051U 22077J   26002.04969611  .00001905  00000+0  15279-3 0  9999
2 53051  97.6034 184.9648 0002197  64.8353 295.3099 15.01272134190916
STARLINK-4341           
1 53052U 22077K   26002.04599074  .00000439  00000+0  38697-4 0  9993
2 53052  97.6030 184.9797 0002582  67.0125 293.1372 15.01260311190912
STARLINK-4337           
1 53053U 22077L   26002.03858260  .00000529  00000+0  45752-4 0  9998
2 53053  97.6019 184.9720 0002982  49.9011 310.2474 15.01260984190913
STARLINK-4339           
1 53054U 22077M   26002.04634222  .00000031  00000+0  63566-5 0  9992
2 53054  97.6037 185.5754 0001047  77.7006 282.4338 15.05651680190956
STARLINK-4338           
1 53055U 22077N   26002.07680171  .00000076  00000+0  94770-5 0  9990
2 53055  97.6024 185.5179 0001345  80.9018 279.2361 15.05643495190959
STARLINK-4314           
1 53056U 22077P   26002.12942960 -.00000968  00000+0 -62917-4 0  9993
2 53056  97.6022 185.6092 0001584  83.1761 276.9646 15.05639782190963
STARLINK-4252           
1 53057U 22077Q   26002.08788322 -.00002092  00000+0 -14084-3 0  9990
2 53057  97.6037 185.6467 0001583 110.8752 249.2644 15.05650385190966
STARLINK-4317           
1 53058U 22077R   26002.05178810  .00001032  00000+0  84853-4 0  9996
2 53058  97.6038 184.9487 0001734  66.6571 293.4836 15.01263541190927
STARLINK-4320           
1 53059U 22077S   26002.09622130  .00000212  00000+0  21014-4 0  9999
2 53059  97.6019 185.0244 0001072  11.6585 348.4664 15.01256820190922
STARLINK-4305           
1 53060U 22077T   26002.10153454  .00000537  00000+0  46349-4 0  9999
2 53060  97.6020 185.0324 0002477  55.1250 305.0207 15.01256189190927
STARLINK-4308           
1 53061U 22077U   26002.09412546  .00000069  00000+0  98842-5 0  9994
2 53061  97.6012 185.0187 0001902  59.0757 301.0654 15.01263992190925
STARLINK-4311           
1 53062U 22077V   26002.09783068  .00005402  00000+0  42512-3 0  9992
2 53062  97.6028 185.0280 0003171  46.3703 313.7784 15.01230216190924
STARLINK-4307           
1 53063U 22077W   26002.03802929  .00000533  00000+0  41169-4 0  9993
2 53063  97.6036 185.4681 0001723  82.1663 277.9759 15.05651222 62533
STARLINK-4313           
1 53064U 22077X   26002.04911045  .00000895  00000+0  66209-4 0  9998
2 53064  97.6029 185.5375 0001321  77.7010 282.4365 15.05649016190957
STARLINK-4312           
1 53065U 22077Y   26002.09042237  .00000563  00000+0  48402-4 0  9999
2 53065  97.6016 185.0107 0001431  96.1719 263.9668 15.01258867190928
STARLINK-4309           
1 53066U 22077Z   26002.08881847  .00010163  00000+0  79436-3 0  9994
2 53066  97.6007 185.0171 0001947  88.9053 271.2395 15.01272820190926
STARLINK-4325           
1 53068U 22077AB  26002.04357207  .00000817  00000+0  60861-4 0  9998
2 53068  97.6035 185.5297 0001671  77.8140 282.3273 15.05649204190950
STARLINK-4323           
1 53069U 22077AC  26002.08301398  .00000983  00000+0  81035-4 0  9993
2 53069  97.6020 185.0012 0001427  79.9264 280.2121 15.01259350190925
STARLINK-4342           
1 53070U 22077AD  26002.07126823  .00000592  00000+0  45215-4 0  9998
2 53070  97.6018 185.6420 0001374  79.0139 281.1242 15.05652643190960
STARLINK-4328           
1 53071U 22077AE  26002.06849829  .00000745  00000+0  55840-4 0  9991
2 53071  97.6022 185.6299 0001273  82.2855 277.8516 15.05651510190967
STARLINK-4344           
1 53072U 22077AF  26002.05464469  .00001175  00000+0  85645-4 0  9998
2 53072  97.6020 185.5049 0001285  86.6980 273.4394 15.05650785190956
STARLINK-4346           
1 53073U 22077AG  26002.07895358  .00023539  00000+0  11333-2 0  9995
2 53073  97.6333 189.4101 0004909 107.9767 252.2002 15.18750100191185
STARLINK-4310           
1 53074U 22077AH  26002.05187567  .00001100  00000+0  80429-4 0  9994
2 53074  97.6019 185.4998 0001411  85.1094 275.0294 15.05650390190958
STARLINK-4348           
1 53075U 22077AJ  26002.07931178  .00003373  00000+0  26687-3 0  9991
2 53075  97.6015 184.9844 0001127 173.8689 186.2549 15.01283148190920
